IRIDIUM 7 [-]           
1 24793U 97020B   24096.43982131  .00000389  00000+0  12928-3 0  9999
2 24793  86.4018   0.2933 0002390  90.6448 269.5022 14.35143996409099
IRIDIUM 5 [-]           
1 24795U 97020D   24096.55625243  .00003233  00000+0  31443-3 0  9996
2 24795  86.3871 284.1656 0121820 260.1566  98.5887 14.86730929420273
IRIDIUM 4 [-]           
1 24796U 97020E   24096.42375191  .00000438  00000+0  14389-3 0  9991
2 24796  86.4012 357.4710 0002142  90.1671 269.9771 14.36064533409628
IRIDIUM 914 [-]         
1 24836U 97030A   24096.50997622  .00000484  00000+0  14773-3 0  9993
2 24836  86.3995   7.3141 0001481 141.1102 219.0204 14.39908939544124
IRIDIUM 16 [-]          
1 24841U 97030F   24096.51860605  .00000572  00000+0  18343-3 0  9995
2 24841  86.4080  29.0862 0004267  75.0970 285.0700 14.37797517404091
IRIDIUM 911 [-]         
1 24842U 97030G   24096.53276779  .00000695  00000+0  18775-3 0  9996
2 24842  86.4506  28.2687 0016369 112.4984 247.7953 14.46403207411776
IRIDIUM 17 [-]          
1 24870U 97034B   24096.44183436  .00000607  00000+0  19872-3 0  9990
2 24870  86.3950  58.7331 0003018  54.9217 305.2263 14.36882506400706
IRIDIUM 920 [-]         
1 24871U 97034C   24096.56876157  .00000570  00000+0  17242-3 0  9991
2 24871  86.4005  38.9259 0013849  85.6373 274.6409 14.40608429403557
